[{"OBJECT_NAME":"ONEWEB-0574","OBJECT_ID":"2023-043T","EPOCH":"2025-12-18T06:39:55.026144","MEAN_MOTION":13.21825869,"ECCENTRICITY":0.00019143,"INCLINATION":87.9219,"RA_OF_ASC_NODE":280.0468,"ARG_OF_PERICENTER":81.4689,"MEAN_ANOMALY":278.6662,"EPHEMERIS_TYPE":0,"CLASSIFICATION_TYPE":"U","NORAD_CAT_ID":56063,"ELEMENT_SET_NO":999,"REV_AT_EPOCH":13437,"BSTAR":-0.00010695004,"MEAN_MOTION_DOT":-3.1e-7,"MEAN_MOTION_DDOT":0},{"OBJECT_NAME":"ONEWEB-0575","OBJECT_ID":"2023-043U","EPOCH":"2025-12-18T06:48:42.408288","MEAN_MOTION":13.16597162,"ECCENTRICITY":0.00017519,"INCLINATION":87.9045,"RA_OF_ASC_NODE":264.79,"ARG_OF_PERICENTER":84.5995,"MEAN_ANOMALY":275.5336,"EPHEMERIS_TYPE":0,"CLASSIFICATION_TYPE":"U","NORAD_CAT_ID":56064,"ELEMENT_SET_NO":999,"REV_AT_EPOCH":13516,"BSTAR":0.00025730181,"MEAN_MOTION_DOT":1.11e-6,"MEAN_MOTION_DDOT":0},{"OBJECT_NAME":"ONEWEB-0576","OBJECT_ID":"2023-043V","EPOCH":"2025-12-18T06:21:21.402720","MEAN_MOTION":13.16595286,"ECCENTRICITY":0.00017375,"INCLINATION":87.9049,"RA_OF_ASC_NODE":264.7952,"ARG_OF_PERICENTER":81.969,"MEAN_ANOMALY":278.1638,"EPHEMERIS_TYPE":0,"CLASSIFICATION_TYPE":"U","NORAD_CAT_ID":56065,"ELEMENT_SET_NO":999,"REV_AT_EPOCH":13515,"BSTAR":-0.00010730585,"MEAN_MOTION_DOT":-2.8e-7,"MEAN_MOTION_DDOT":0},{"OBJECT_NAME":"ONEWEB-0577","OBJECT_ID":"2023-043W","EPOCH":"2025-12-18T06:30:28.181664","MEAN_MOTION":13.16595176,"ECCENTRICITY":0.00022362,"INCLINATION":87.9048,"RA_OF_ASC_NODE":264.7935,"ARG_OF_PERICENTER":92.3365,"MEAN_ANOMALY":267.8022,"EPHEMERIS_TYPE":0,"CLASSIFICATION_TYPE":"U","NORAD_CAT_ID":56066,"ELEMENT_SET_NO":999,"REV_AT_EPOCH":13518,"BSTAR":-8.1242444e-5,"MEAN_MOTION_DOT":-1.8e-7,"MEAN_MOTION_DDOT":0},{"OBJECT_NAME":"ONEWEB-0578","OBJECT_ID":"2023-043X","EPOCH":"2025-12-18T06:20:57.140736","MEAN_MOTION":13.2182464,"ECCENTRICITY":0.00015841,"INCLINATION":87.9225,"RA_OF_ASC_NODE":280.0601,"ARG_OF_PERICENTER":81.3369,"MEAN_ANOMALY":278.7945,"EPHEMERIS_TYPE":0,"CLASSIFICATION_TYPE":"U","NORAD_CAT_ID":56067,"ELEMENT_SET_NO":999,"REV_AT_EPOCH":13433,"BSTAR":8.216893e-6,"MEAN_MOTION_DOT":1.6e-7,"MEAN_MOTION_DDOT":0},{"OBJECT_NAME":"ONEWEB-0579","OBJECT_ID":"2023-043Y","EPOCH":"2025-12-18T06:06:44.277696","MEAN_MOTION":13.21828409,"ECCENTRICITY":0.00020014,"INCLINATION":87.9227,"RA_OF_ASC_NODE":280.0494,"ARG_OF_PERICENTER":70.0614,"MEAN_ANOMALY":290.0735,"EPHEMERIS_TYPE":0,"CLASSIFICATION_TYPE":"U","NORAD_CAT_ID":56068,"ELEMENT_SET_NO":999,"REV_AT_EPOCH":13434,"BSTAR":5.2280171e-5,"MEAN_MOTION_DOT":3.5e-7,"MEAN_MOTION_DDOT":0},{"OBJECT_NAME":"ONEWEB-0581","OBJECT_ID":"2023-043Z","EPOCH":"2025-12-18T06:39:35.497152","MEAN_MOTION":13.1659607,"ECCENTRICITY":0.00019987,"INCLINATION":87.9043,"RA_OF_ASC_NODE":264.8057,"ARG_OF_PERICENTER":82.0249,"MEAN_ANOMALY":278.1109,"EPHEMERIS_TYPE":0,"CLASSIFICATION_TYPE":"U","NORAD_CAT_ID":56069,"ELEMENT_SET_NO":999,"REV_AT_EPOCH":13515,"BSTAR":0.00025917905,"MEAN_MOTION_DOT":1.12e-6,"MEAN_MOTION_DDOT":0},{"OBJECT_NAME":"ONEWEB-0609","OBJECT_ID":"2023-043AA","EPOCH":"2025-12-18T05:50:27.535200","MEAN_MOTION":13.15550418,"ECCENTRICITY":0.00017688,"INCLINATION":87.9005,"RA_OF_ASC_NODE":295.3248,"ARG_OF_PERICENTER":74.9493,"MEAN_ANOMALY":285.1833,"EPHEMERIS_TYPE":0,"CLASSIFICATION_TYPE":"U","NORAD_CAT_ID":56070,"ELEMENT_SET_NO":999,"REV_AT_EPOCH":13264,"BSTAR":-2.047e-8,"MEAN_MOTION_DOT":1.3e-7,"MEAN_MOTION_DDOT":0},{"OBJECT_NAME":"ONEWEB-0613","OBJECT_ID":"2023-043AB","EPOCH":"2025-12-18T05:43:36.300576","MEAN_MOTION":13.15550714,"ECCENTRICITY":0.00019574,"INCLINATION":87.9,"RA_OF_ASC_NODE":295.3379,"ARG_OF_PERICENTER":70.3393,"MEAN_ANOMALY":289.7948,"EPHEMERIS_TYPE":0,"CLASSIFICATION_TYPE":"U","NORAD_CAT_ID":56071,"ELEMENT_SET_NO":999,"REV_AT_EPOCH":13264,"BSTAR":0.0001670228,"MEAN_MOTION_DOT":7.6e-7,"MEAN_MOTION_DDOT":0},{"OBJECT_NAME":"ONEWEB-0630","OBJECT_ID":"2023-043AC","EPOCH":"2025-12-18T05:36:45.315648","MEAN_MOTION":13.15550819,"ECCENTRICITY":0.00019619,"INCLINATION":87.8998,"RA_OF_ASC_NODE":295.3099,"ARG_OF_PERICENTER":70.0475,"MEAN_ANOMALY":290.0866,"EPHEMERIS_TYPE":0,"CLASSIFICATION_TYPE":"U","NORAD_CAT_ID":56072,"ELEMENT_SET_NO":999,"REV_AT_EPOCH":13263,"BSTAR":0.00018768859,"MEAN_MOTION_DOT":8.3e-7,"MEAN_MOTION_DDOT":0},{"OBJECT_NAME":"ONEWEB-0632","OBJECT_ID":"2023-043AD","EPOCH":"2025-12-18T05:29:55.504896","MEAN_MOTION":13.15549453,"ECCENTRICITY":0.0001993,"INCLINATION":87.8996,"RA_OF_ASC_NODE":295.3289,"ARG_OF_PERICENTER":81.0629,"MEAN_ANOMALY":279.0727,"EPHEMERIS_TYPE":0,"CLASSIFICATION_TYPE":"U","NORAD_CAT_ID":56073,"ELEMENT_SET_NO":999,"REV_AT_EPOCH":13263,"BSTAR":-0.00079173856,"MEAN_MOTION_DOT":-2.85e-6,"MEAN_MOTION_DDOT":0},{"OBJECT_NAME":"ONEWEB-0633","OBJECT_ID":"2023-043AE","EPOCH":"2025-12-18T05:20:47.563872","MEAN_MOTION":13.15549863,"ECCENTRICITY":0.00018639,"INCLINATION":87.8995,"RA_OF_ASC_NODE":295.2934,"ARG_OF_PERICENTER":65.4737,"MEAN_ANOMALY":294.6588,"EPHEMERIS_TYPE":0,"CLASSIFICATION_TYPE":"U","NORAD_CAT_ID":56074,"ELEMENT_SET_NO":999,"REV_AT_EPOCH":13261,"BSTAR":0.00022887136,"MEAN_MOTION_DOT":9.9e-7,"MEAN_MOTION_DDOT":0},{"OBJECT_NAME":"ONEWEB-0634","OBJECT_ID":"2023-043AF","EPOCH":"2025-12-18T06:49:46.616448","MEAN_MOTION":13.15550331,"ECCENTRICITY":0.00014846,"INCLINATION":87.9,"RA_OF_ASC_NODE":295.331,"ARG_OF_PERICENTER":74.8458,"MEAN_ANOMALY":285.2836,"EPHEMERIS_TYPE":0,"CLASSIFICATION_TYPE":"U","NORAD_CAT_ID":56075,"ELEMENT_SET_NO":999,"REV_AT_EPOCH":13261,"BSTAR":0.00035477381,"MEAN_MOTION_DOT":1.46e-6,"MEAN_MOTION_DDOT":0},{"OBJECT_NAME":"ONEWEB-0635","OBJECT_ID":"2023-043AG","EPOCH":"2025-12-18T06:42:55.152000","MEAN_MOTION":13.15546414,"ECCENTRICITY":0.0002058,"INCLINATION":87.8996,"RA_OF_ASC_NODE":295.2857,"ARG_OF_PERICENTER":83.2961,"MEAN_ANOMALY":276.8404,"EPHEMERIS_TYPE":0,"CLASSIFICATION_TYPE":"U","NORAD_CAT_ID":56076,"ELEMENT_SET_NO":999,"REV_AT_EPOCH":13264,"BSTAR":0.0002256668,"MEAN_MOTION_DOT":9.8e-7,"MEAN_MOTION_DDOT":0},{"OBJECT_NAME":"ONEWEB-0636","OBJECT_ID":"2023-043AH","EPOCH":"2025-12-18T06:31:30.973728","MEAN_MOTION":13.15546351,"ECCENTRICITY":0.00019925,"INCLINATION":87.8992,"RA_OF_ASC_NODE":295.3049,"ARG_OF_PERICENTER":82.9666,"MEAN_ANOMALY":277.1691,"EPHEMERIS_TYPE":0,"CLASSIFICATION_TYPE":"U","NORAD_CAT_ID":56077,"ELEMENT_SET_NO":999,"REV_AT_EPOCH":13262,"BSTAR":-0.00011101716,"MEAN_MOTION_DOT":-2.9e-7,"MEAN_MOTION_DDOT":0},{"OBJECT_NAME":"ONEWEB-0637","OBJECT_ID":"2023-043AJ","EPOCH":"2025-12-18T06:22:22.905696","MEAN_MOTION":13.15550794,"ECCENTRICITY":0.00016751,"INCLINATION":87.8996,"RA_OF_ASC_NODE":295.3225,"ARG_OF_PERICENTER":86.3983,"MEAN_ANOMALY":273.7338,"EPHEMERIS_TYPE":0,"CLASSIFICATION_TYPE":"U","NORAD_CAT_ID":56078,"ELEMENT_SET_NO":999,"REV_AT_EPOCH":13264,"BSTAR":-0.00042523034,"MEAN_MOTION_DOT":-1.47e-6,"MEAN_MOTION_DDOT":0}]
