ONEWEB-0574             
1 56063U 23043T   25352.27772021 -.00000031  00000+0 -10695-3 0  9996
2 56063  87.9219 280.0468 0001914  81.4689 278.6662 13.21825869134377
ONEWEB-0575             
1 56064U 23043U   25352.28382417  .00000111  00000+0  25730-3 0  9997
2 56064  87.9045 264.7900 0001751  84.5995 275.5336 13.16597162135166
ONEWEB-0576             
1 56065U 23043V   25352.26483105 -.00000028  00000+0 -10731-3 0  9996
2 56065  87.9049 264.7952 0001737  81.9690 278.1638 13.16595286135153
ONEWEB-0577             
1 56066U 23043W   25352.27115951 -.00000018  00000+0 -81242-4 0  9994
2 56066  87.9048 264.7935 0002236  92.3365 267.8022 13.16595176135187
ONEWEB-0578             
1 56067U 23043X   25352.26455024  .00000016  00000+0  82169-5 0  9998
2 56067  87.9225 280.0601 0001584  81.3369 278.7945 13.21824640134331
ONEWEB-0579             
1 56068U 23043Y   25352.25467914  .00000035  00000+0  52280-4 0  9990
2 56068  87.9227 280.0494 0002001  70.0614 290.0735 13.21828409134349
ONEWEB-0581             
1 56069U 23043Z   25352.27749418  .00000112  00000+0  25918-3 0  9998
2 56069  87.9043 264.8057 0001998  82.0249 278.1109 13.16596070135154
ONEWEB-0609             
1 56070U 23043AA  25352.24337425  .00000013  00000+0 -20470-7 0  9991
2 56070  87.9005 295.3248 0001768  74.9493 285.1833 13.15550418132649
ONEWEB-0613             
1 56071U 23043AB  25352.23861459  .00000076  00000+0  16702-3 0  9997
2 56071  87.9000 295.3379 0001957  70.3393 289.7948 13.15550714132645
ONEWEB-0630             
1 56072U 23043AC  25352.23385782  .00000083  00000+0  18769-3 0  9991
2 56072  87.8998 295.3099 0001961  70.0475 290.0866 13.15550819132632
ONEWEB-0632             
1 56073U 23043AD  25352.22911464 -.00000285  00000+0 -79174-3 0  9996
2 56073  87.8996 295.3289 0001993  81.0629 279.0727 13.15549453132635
ONEWEB-0633             
1 56074U 23043AE  25352.22277273  .00000099  00000+0  22887-3 0  9990
2 56074  87.8995 295.2934 0001863  65.4737 294.6588 13.15549863132614
ONEWEB-0634             
1 56075U 23043AF  25352.28456732  .00000146  00000+0  35477-3 0  9998
2 56075  87.9000 295.3310 0001484  74.8458 285.2836 13.15550331132619
ONEWEB-0635             
1 56076U 23043AG  25352.27980500  .00000098  00000+0  22567-3 0  9995
2 56076  87.8996 295.2857 0002058  83.2961 276.8404 13.15546414132646
ONEWEB-0636             
1 56077U 23043AH  25352.27188627 -.00000029  00000+0 -11102-3 0  9995
2 56077  87.8992 295.3049 0001992  82.9666 277.1691 13.15546351132621
ONEWEB-0637             
1 56078U 23043AJ  25352.26554289 -.00000147  00000+0 -42523-3 0  9998
2 56078  87.8996 295.3225 0001675  86.3983 273.7338 13.15550794132648
